0 GGSE 2
1  1244U 65016B   19198.57536784 -.00000063 +00000-0 -77355-5 0  9995
2  1244 070.0784 165.5368 0020669 177.6642 182.4564 13.95632693765543
0 THOR AGENA D R/B
1  1245U 65016J   19198.14774521 -.00000010 +00000-0 +30178-4 0  9994
2  1245 070.0788 098.2170 0019787 143.7713 216.4739 13.97009875767358
0 OPS 4988 (GREB 6)
1  1271U 65016A   19198.79370005 -.00000059 +00000-0 -47609-5 0  9995
2  1271 070.0797 141.1515 0019750 160.4967 216.3531 13.96116846766304
0 OPS 4988 (GREB 6)
1  1271U 65016A   19199.39102140 -.00000057  00000-0 -33109-5 0  9993
2  1271  70.0797 139.8793 0019716 159.6619 338.5519 13.96116872766797
0 PORCUPINE 1
1  1272U 65016H   19199.17187082 -.00000040  00000-0  88856-5 0  9998
2  1272  70.0776 214.0271 0023120 201.8773 158.1347 13.94208329764742
0 PORCUPINE 1
1  1272U 65016H   19198.45442971 -.00000033 +00000-0 +14155-4 0  9991
2  1272 070.0777 215.5506 0023167 202.7654 157.2426 13.94208334764215
0 SOLRAD 7B
1  1291U 65016D   19199.42842258 -.00000037  00000-0  11185-4 0  9996
2  1291  70.0773 203.7971 0021962 202.4571 157.5575 13.94582228765017
0 GGSE 3
1  1292U 65016C   19198.87836282 -.00000045  00000-0  52536-5 0  9990
2  1292  70.0783 336.7632 0018012  53.4544 306.8219 14.00576163771241
0 GGSE 3
1  1292U 65016C   19198.87836282 -.00000045 +00000-0 +52536-5 0  9990
2  1292 070.0783 336.7632 0018012 053.4544 306.8219 14.00576163770756
0 OSCAR 3
1  1293U 65016F   19198.18452449 +.00000212 +00000-0 +16107-3 0  9991
2  1293 070.0750 122.2843 0019998 289.5476 070.3476 14.06338506776705
0 OSCAR 3
1  1293U 65016F   19199.18027968  .00000195  00000-0  15082-3 0  9997
2  1293  70.0750 120.1264 0020008 288.3506  71.5429 14.06338967777347
0 DELTA 1 DEB
1  1312U 65004C   19198.90088903 -.00000039 +00000-0 -21431-4 0  9996
2  1312 096.3559 279.8035 1119993 349.3730 008.5347 12.27391002416591
0 DELTA 1 DEB
1  1312U 65004C   19199.47143369 -.00000031  00000-0 -13520-4 0  9999
2  1312  96.3559 280.1032 1119960 348.1016   9.5477 12.27391035434312
0 OPS 4682 (SNAPSHOT)
1  1314U 65027A   19198.86906574 +.00000028 +00000-0 +76158-4 0  9993
2  1314 090.3058 305.8681 0031357 039.8904 105.9736 12.91756817304868
0 SECOR 4 (EGRS 4)
1  1315U 65027B   19198.85113503 -.00000064 +00000-0 -25986-3 0  9999
2  1315 090.2971 316.1247 0029887 319.1228 203.0663 12.92605131560667
0 OPS 4682 DEB
1  1316U 65027C   19198.45257209 +.00001071 +00000-0 +26896-2 0  9995
2  1316 090.2797 325.9484 0032961 265.7865 093.9501 13.18688600585648
0 OPS 4682 DEB
1  1316U 65027C   19199.43897029  .00000758  00000-0  18987-2 0  9997
2  1316  90.2797 325.9746 0033105 262.8910  96.8458 13.18688253586221
0 DELTA 1 R/B(2)
1  1318U 65028B   19199.30549781 -.00000111  00000-0  00000+0 0  9993
2  1318  17.3863 247.9066 6931446 294.1245  46.3594  2.11821593205029
0 EXPLORER 27
1  1328U 65032A   19198.89697469 -.00000067 +00000-0 +26892-4 0  9991
2  1328 041.1857 024.3372 0256311 125.1464 237.3592 13.38602580649763
0 SL-8 DEB
1  1335U 65020E   19198.87905396 -.00000055 +00000-0 +39012-4 0  9990
2  1335 056.0809 346.8530 0546228 144.1607 219.7335 13.79704260660710
0 SCOUT X-4 R/B
1  1358U 65032B   19198.86949893 -.00000060 +00000-0 +41114-4 0  9999
2  1358 041.1918 062.3303 0257950 062.8627 299.8184 13.38047005649257
0 TITAN 3A TRANSTAGE R/B
1  1359U 65034A   19198.65124251 +.00000035 +00000-0 +60825-2 0  9991
2  1359 032.1173 263.6626 0489934 237.2274 118.0073 09.17114320816713
0 LCS 1
1  1361U 65034C   19198.89004802 +.00000013 +00000-0 +62358-3 0  9999
2  1361 032.1448 055.2777 0009325 315.5493 044.4256 09.89295890959699
0 SL-8 DEB
1  1392U 65020AH  19198.92476649 +.00000329 +00000-0 +74883-4 0  9991
2  1392 055.8815 061.8352 0345576 026.4858 335.3348 14.47570713726268
0 OPS 8480 (TRANSIT 5B-6)
1  1420U 65048A   19198.61832146 +.00000042 +00000-0 +48578-4 0  9991
2  1420 089.9389 310.4646 0074071 190.0731 253.4043 13.51352154662172
0 THOR ABLESTAR DEB
1  1425U 65048C   19198.90096380 +.00000029 +00000-0 +31136-4 0  9997
2  1425 089.9359 309.6460 0072133 311.9581 187.4848 13.48768678659872
0 THOR ABLESTAR R/B
1  1428U 65048B   19198.85439392 +.00000032 +00000-0 +33801-4 0  9993
2  1428 089.9355 310.1388 0055305 313.8748 197.0229 13.52504910667146
0 TIROS 10
1  1430U 65051A   19199.80391720 -.00000016  00000-0  79591-5 0  9998
2  1430  98.2501 331.6643 0057694 113.8674 246.8576 14.40255626832727
0 DELTA 1 R/B
1  1433U 65051B   19199.67279443  .00000041  00000-0  19929-4 0  9998
2  1433  98.4482 277.4707 0043685 153.4974 206.8470 14.56676601847526
0 DELTA 1 R/B
1  1433U 65051B   19198.77982325 +.00000046 +00000-0 +21084-4 0  9998
2  1433 098.4483 276.5658 0043628 156.2069 204.1158 14.56676467826571
0 THOR ABLESTAR DEB
1  1435U 65048D   19198.76506046 +.00000229 +00000-0 +24733-3 0  9993
2  1435 089.9476 313.1895 0065348 324.5290 201.8418 13.69852127680775
0 SL-8 DEB
1  1477U 65020BB  19198.62016292 +.00002113 +00000-0 +33242-2 0  9991
2  1477 055.5002 289.4856 0604148 231.0869 123.4695 12.96647081550264
0 SL-8 DEB
1  1479U 65020BD  19198.87517639 +.00000101 +00000-0 +39066-3 0  9997
2  1479 056.0319 116.8594 0761053 151.2813 213.2299 12.58687742478157
0 SL-8 DEB
1  1480U 65020BE  19198.40199983 -.00000000 +00000-0 +13736-3 0  9991
2  1480 056.0667 222.4750 0851573 146.7052 219.0530 12.62568871490831
0 SCOUT B R/B
1  1502U 65063B   19198.73096483 -.00000039 +00000-0 -54222-4 0  9999
2  1502 069.2302 113.2704 0785600 016.8016 007.3008 11.78541805320696
0 THOR ABLESTAR DEB
1  1504U 65065A   19198.67359619 +.00000060 +00000-0 +92083-4 0  9998
2  1504 089.8377 268.1515 0066626 188.8705 326.6998 13.39443804629408
0 THOR ABLESTAR R/B
1  1508U 65065B   19198.81714991 +.00000027 +00000-0 +37596-4 0  9997
2  1508 090.1520 268.4836 0039839 256.3432 230.8006 13.35954532628170
0 DODECAPOLE 2
1  1510U 65065C   19198.73713843 +.00000615 +00000-0 +45263-3 0  9998
2  1510 090.0305 013.3583 0039599 203.3829 156.5547 13.94270944679784
0 DODECAPOLE 2
1  1510U 65065C   19199.45480768  .00000621  00000-0  45668-3 0  9991
2  1510  90.0306  13.3606 0039747 201.0996 158.8542 13.94271886680289
0 THOR ABLESTAR DEB
1  1511U 65065D   19198.65759147 +.00000028 +00000-0 +36205-4 0  9992
2  1511 089.8583 229.0071 0070810 108.0176 039.9882 13.33974039623823
0 TEMPSAT 1
1  1512U 65065E   19198.93189999 +.00000021 +00000-0 +22500-4 0  9992
2  1512 089.8556 230.4504 0071061 140.9443 336.5505 13.33420730623374
0 OPS 8464 (TRANSIT 5B-7)
1  1514U 65065F   19198.79360929 +.00000047 +00000-0 +72140-4 0  9995
2  1514 089.8394 249.0685 0072451 075.5809 058.1821 13.34947911624280
0 NAVSPASUR ROD 1
1  1515U 65065G   19198.77573157 +.00000097 +00000-0 +13861-3 0  9992
2  1515 089.8869 225.9287 0062853 043.8731 008.7895 13.48665562639581
0 NAVSPASUR ROD 1
1  1515U 65065G   19199.53818957  .00000099  00000-0  14113-3 0  9990
2  1515  89.8869 225.9201 0062761  41.7240 110.6229 13.48665704640132
0 CALSPHERE 4(A)
1  1520U 65065H   19198.92752896 +.00000046 +00000-0 +71091-4 0  9998
2  1520 090.0528 127.7344 0071729 029.7552 058.2498 13.35792186625406
0 THOR ABLESTAR DEB
1  1521U 65065K   19198.50720097 +.00000029 +00000-0 +39214-4 0  9993
2  1521 089.8909 221.1410 0070410 152.8653 002.3284 13.33150436622746
0 THOR ABLESTAR DEB
1  1522U 65065L   19198.78811861 +.00000016 +00000-0 +13826-4 0  9991
2  1522 090.1774 093.0744 0071753 143.2600 261.8907 13.33628894623041
0 SL-8 DEB
1  1549U 65020CV  19198.91354150 +.00000058 +00000-0 +20937-3 0  9995
2  1549 056.1700 151.3460 0849815 215.8580 138.2338 12.62697807495716
0 SL-8 DEB
1  1549U 65020CV  19199.86355941  .00000084  00000-0  24393-3 0  9998
2  1549  56.1703 148.6909 0849778 217.1696 136.7393 12.62698349496275
0 COSMOS 81
1  1571U 65070B   19198.89313032 -.00000106 +00000-0 -73709-4 0  9998
2  1571 056.0590 164.4468 0086882 291.7999 093.3083 12.48832072457034
0 COSMOS 82
1  1572U 65070C   19198.93239256 -.00000111 +00000-0 -11690-3 0  9995
2  1572 056.0569 172.9392 0077571 124.3805 265.3194 12.45088881449687
0 COSMOS 83
1  1573U 65070D   19198.87874406 -.00000095 +00000-0 -13620-4 0  9998
2  1573 056.0518 208.3835 0067611 324.6684 034.9748 12.41013460441800
0 COSMOS 84
1  1574U 65070E   19198.90831951 -.00000068 +00000-0 +18387-3 0  9994
2  1574 056.0512 240.8686 0065024 146.1612 270.9260 12.37004463433837
0 SL-8 R/B
1  1575U 65070F   19198.50304241 -.00000090 +00000-0 +41949-4 0  9994
2  1575 056.1231 168.3746 0095011 262.5020 236.1204 12.56968086473065
0 VANGUARD DEB
1  1576U 58002C   19198.16415736 +.00000599 +00000-0 +56265-3 0  9995
2  1576 034.2257 215.3924 1451419 032.3009 335.8690 11.69989297505030
0 VANGUARD DEB
1  1576U 58002C   19199.10343451  .00000590  00000-0  55497-3 0  9991
2  1576  34.2257 212.0305 1451461  37.2124 332.0722 11.69990385521714
0 PORCUPINE 2
1  1577U 65065J   19198.81745403 +.00000038 +00000-0 +55950-4 0  9991
2  1577 089.8986 221.0684 0071184 030.0681 019.9838 13.35759983625343
0 OPS 8068
1  1580U 65072A   19199.71363253 -.00000008  00000-0  13295-4 0  9996
2  1580  98.4416  61.9196 0233662 301.2463  56.6015 14.27540050793078
0 THOR ALTAIR R/B
1  1583U 65072D   19198.70402391 +.00000070 +00000-0 +23734-4 0  9991
2  1583 098.3995 347.1364 0161597 124.1741 237.4897 14.56048765798560
0 THOR ALTAIR R/B
1  1583U 65072D   19199.39122536  .00000056  00000-0  21163-4 0  9995
2  1583  98.3996 347.8284 0161606 122.0688 239.6319 14.56048849819387
0 COSMOS 86
1  1584U 65073A   19198.83949288 -.00000109 +00000-0 -70740-4 0  9992
2  1584 056.0570 147.4557 0214228 103.1375 284.2861 12.51871517461083
0 COSMOS 87
1  1585U 65073B   19198.54455991 -.00000089 +00000-0 +33319-4 0  9991
2  1585 056.0599 234.2171 0200423 236.1087 279.6465 12.47426233450656
